     3.02           N: GNSS NAV DATA    E: GALILEO          RINEX VERSION / TYPE
LgsRinex v1.7.8.0   SMO                 20171211 131243 UTC PGM / RUN BY / DATE
GAL    3.4000D+01  3.0469D-01  1.5869D-03  0.0000D+00       IONOSPHERIC CORR
GAUT  0.0000000000D+00-1.776356839D-15  86400 1979          TIME SYSTEM CORR
GPGA  5.2095856518D-09-1.332267630D-15 172800 1979          TIME SYSTEM CORR
    18    18  1929     7                                    LEAP SECONDS
                                                            END OF HEADER
E01 2017 12 10 19 10 00-2.264204085805D-04-8.810729923425D-12 0.000000000000D+00
     1.150000000000D+02-2.718750000000D+00 2.812974297939D-09-5.443153277297D-01
    -1.173466444016D-07 1.982150133699D-04 6.631016731262D-06 5.440618366241D+03
     6.900000000000D+04 6.705522537231D-08-2.300043579122D+00-1.862645149231D-09
     9.952504278780D-01 2.137187500000D+02-1.812000365226D+00-5.566303287446D-09
    -4.585905266641D-10 2.580000000000D+02 1.979000000000D+03 0.000000000000D+00
     3.120000000000D+00 0.000000000000D+00-4.656612873077D-09 0.000000000000D+00
     6.970000000000D+04
E01 2017 12 10 19 10 00-2.264212816954D-04-8.810729923425D-12 0.000000000000D+00
     1.150000000000D+02-2.718750000000D+00 2.812974297939D-09-5.443153277297D-01
    -1.173466444016D-07 1.982150133699D-04 6.631016731262D-06 5.440618366241D+03
     6.900000000000D+04 6.705522537231D-08-2.300043579122D+00-1.862645149231D-09
     9.952504278780D-01 2.137187500000D+02-1.812000365226D+00-5.566303287446D-09
    -4.585905266641D-10 5.170000000000D+02 1.979000000000D+03 0.000000000000D+00
     3.120000000000D+00 0.000000000000D+00-4.656612873077D-09-5.587935447693D-09
     6.966400000000D+04
E02 2017 12 11 11 10 00-1.437496393919D-06 1.051603248925D-12 0.000000000000D+00
     8.300000000000D+01-9.375000000000D-01 2.808688392975D-09 2.621893010128D+00
    -8.754432201385D-08 2.394818002358D-04 4.075467586517D-06 5.440617851257D+03
     1.266000000000D+05 4.470348358154D-08-2.300401003655D+00-6.332993507385D-08
     9.952409525576D-01 2.694687500000D+02-9.796408184066D-01-5.628448733196D-09
    -2.292952633320D-10 2.580000000000D+02 1.979000000000D+03 0.000000000000D+00
     3.120000000000D+00 0.000000000000D+00-6.286427378654D-09 0.000000000000D+00
     1.273500000000D+05
E02 2017 12 11 11 10 00-1.438660547137D-06 1.037392394210D-12 0.000000000000D+00
     8.300000000000D+01-9.375000000000D-01 2.808688392975D-09 2.621893010128D+00
    -8.754432201385D-08 2.394818002358D-04 4.075467586517D-06 5.440617851257D+03
     1.266000000000D+05 4.470348358154D-08-2.300401003655D+00-6.332993507385D-08
     9.952409525576D-01 2.694687500000D+02-9.796408184066D-01-5.628448733196D-09
    -2.292952633320D-10 5.170000000000D+02 1.979000000000D+03 0.000000000000D+00
     3.120000000000D+00 0.000000000000D+00-6.286427378654D-09-7.683411240578D-09
     1.273540000000D+05
E03 2017 12 11 11 40 00 2.555962419137D-05-4.447997525858D-12 0.000000000000D+00
     8.600000000000D+01-2.921875000000D+01 3.309780671756D-09-2.889141387901D+00
    -1.277774572372D-06 2.381063532084D-04 1.104176044464D-05 5.440622367859D+03
     1.284000000000D+05 2.607703208923D-08 1.895014873170D+00-1.862645149231D-08
     9.520977385096D-01 9.912500000000D+01 5.433379828822D-01-5.583089700953D-09
    -1.642925517853D-10 2.580000000000D+02 1.979000000000D+03 0.000000000000D+00
     3.120000000000D+00 0.000000000000D+00-2.328306436539D-09 0.000000000000D+00
     1.291000000000D+05
E03 2017 12 11 11 40 00 2.555939136073D-05-4.447997525858D-12 0.000000000000D+00
     8.600000000000D+01-2.921875000000D+01 3.309780671756D-09-2.889141387901D+00
    -1.277774572372D-06 2.381063532084D-04 1.104176044464D-05 5.440622367859D+03
     1.284000000000D+05 2.607703208923D-08 1.895014873170D+00-1.862645149231D-08
     9.520977385096D-01 9.912500000000D+01 5.433379828822D-01-5.583089700953D-09
    -1.642925517853D-10 5.170000000000D+02 1.979000000000D+03 0.000000000000D+00
     3.120000000000D+00 0.000000000000D+00-2.328306436539D-09-2.561137080193D-09
     1.290640000000D+05
E04 2017 12 11 01 40 00 6.635265890509D-05-7.432277016051D-12 0.000000000000D+00
     2.600000000000D+01 1.634375000000D+01 3.201561904476D-09-3.548155350569D-01
     6.388872861862D-07 8.934026118368D-05 1.105479896069D-05 5.440620164871D+03
     9.240000000000D+04 7.450580596924D-09 1.895250601938D+00-3.539025783539D-08
     9.521438760200D-01 9.737500000000D+01 2.186959002181D+00-5.528801725355D-09
     1.392915123521D-11 2.580000000000D+02 1.979000000000D+03 0.000000000000D+00
     3.120000000000D+00 0.000000000000D+00-7.916241884232D-09 0.000000000000D+00
     9.310000000000D+04
E04 2017 12 11 01 40 00 6.635143654421D-05-7.446487870766D-12 0.000000000000D+00
     2.600000000000D+01 1.634375000000D+01 3.201561904476D-09-3.548155350569D-01
     6.388872861862D-07 8.934026118368D-05 1.105479896069D-05 5.440620164871D+03
     9.240000000000D+04 7.450580596924D-09 1.895250601938D+00-3.539025783539D-08
     9.521438760200D-01 9.737500000000D+01 2.186959002181D+00-5.528801725355D-09
     1.392915123521D-11 5.170000000000D+02 1.979000000000D+03 0.000000000000D+00
     3.120000000000D+00 0.000000000000D+00-7.916241884232D-09-9.080395102501D-09
     9.306400000000D+04
E05 2017 12 11 08 00 00 3.637530026026D-04-7.432277016051D-12 0.000000000000D+00
     6.400000000000D+01-8.750000000000D+00 3.180132379654D-09 1.391357870246D+00
    -4.451721906662D-07 1.396876759827D-04 1.090206205845D-05 5.440626457214D+03
     1.152000000000D+05 3.166496753693D-08 1.895067283673D+00 5.587935447693D-09
     9.521129748014D-01 1.042812500000D+02 1.695818309411D+00-5.570589180256D-09
    -1.164334184622D-10 2.580000000000D+02 1.979000000000D+03 0.000000000000D+00
     3.120000000000D+00 0.000000000000D+00-1.629814505577D-09 0.000000000000D+00
     1.159000000000D+05
E05 2017 12 11 08 00 00 3.637525951490D-04-7.460698725481D-12 0.000000000000D+00
     6.400000000000D+01-8.750000000000D+00 3.180132379654D-09 1.391357870246D+00
    -4.451721906662D-07 1.396876759827D-04 1.090206205845D-05 5.440626457214D+03
     1.152000000000D+05 3.166496753693D-08 1.895067283673D+00 5.587935447693D-09
     9.521129748014D-01 1.042812500000D+02 1.695818309411D+00-5.570589180256D-09
    -1.164334184622D-10 5.170000000000D+02 1.979000000000D+03 0.000000000000D+00
     3.120000000000D+00 0.000000000000D+00-1.629814505577D-09-1.862645149231D-09
     1.158640000000D+05
E07 2017 12 11 11 40 00 1.215534866787D-04-6.608047442569D-12 0.000000000000D+00
     8.600000000000D+01-7.968750000000D+00 3.152988536925D-09 2.525732919280D+00
    -4.861503839493D-07 1.187740126625D-04 1.114606857300D-05 5.440625314713D+03
     1.284000000000D+05 1.862645149231D-09 1.895003879341D+00-5.587935447693D-09
     9.521426340025D-01 9.834375000000D+01-1.591876648623D-01-5.504514999430D-09
    -1.903650709290D-10 2.580000000000D+02 1.979000000000D+03 0.000000000000D+00
     3.120000000000D+00 0.000000000000D+00-6.984919309616D-10 0.000000000000D+00
     1.291000000000D+05
E07 2017 12 11 11 40 00 1.215534866787D-04-6.608047442569D-12 0.000000000000D+00
     8.600000000000D+01-7.968750000000D+00 3.152988536925D-09 2.525732919280D+00
    -4.861503839493D-07 1.187740126625D-04 1.114606857300D-05 5.440625314713D+03
     1.284000000000D+05 1.862645149231D-09 1.895003879341D+00-5.587935447693D-09
     9.521426340025D-01 9.834375000000D+01-1.591876648623D-01-5.504514999430D-09
    -1.903650709290D-10 5.170000000000D+02 1.979000000000D+03 0.000000000000D+00
     3.120000000000D+00 0.000000000000D+00-6.984919309616D-10-6.984919309616D-10
     1.290550000000D+05
E08 2017 12 11 11 10 00 6.683005427476D-03-7.290168468899D-12 0.000000000000D+00
     8.300000000000D+01-1.468750000000D+01 3.077985422095D-09 2.555265415621D+00
    -8.344650268555D-07 1.925794640556D-04 1.074746251106D-05 5.440627389908D+03
     1.266000000000D+05-7.450580596924D-09 1.884651871635D+00-1.862645149231D-09
     9.580578759618D-01 1.087187500000D+02 3.771949676387D-01-5.497371844746D-09
    -2.107230639981D-10 2.580000000000D+02 1.979000000000D+03 0.000000000000D+00
     3.120000000000D+00 0.000000000000D+00-9.546056389809D-09 0.000000000000D+00
     1.273000000000D+05
E08 2017 12 11 11 10 00 6.683003972284D-03-7.290168468899D-12 0.000000000000D+00
     8.300000000000D+01-1.468750000000D+01 3.077985422095D-09 2.555265415621D+00
    -8.344650268555D-07 1.925794640556D-04 1.074746251106D-05 5.440627389908D+03
     1.266000000000D+05-7.450580596924D-09 1.884651871635D+00-1.862645149231D-09
     9.580578759618D-01 1.087187500000D+02 3.771949676387D-01-5.497371844746D-09
    -2.107230639981D-10 5.170000000000D+02 1.979000000000D+03 0.000000000000D+00
     3.120000000000D+00 0.000000000000D+00-9.546056389809D-09-1.071020960808D-08
     1.272640000000D+05
E09 2017 12 11 04 40 00 6.935445882846D-03-1.062971932697D-11 0.000000000000D+00
     4.400000000000D+01-1.812500000000D+00 3.059055897481D-09 2.434370793041D+00
    -1.005828380585D-07 2.254750579596D-04 1.098215579987D-05 5.440625856400D+03
     1.032000000000D+05 3.539025783539D-08 1.884766497118D+00-3.725290298462D-09
     9.580898933869D-01 1.041875000000D+02-4.735416522249D-02-5.506657945835D-09
    -5.464513216924D-11 2.580000000000D+02 1.979000000000D+03 0.000000000000D+00
     3.120000000000D+00 0.000000000000D+00-3.259629011154D-09 0.000000000000D+00
     1.039000000000D+05
